COMMENT,ORIGINATOR,NORAD_CAT_ID,OBJECT_NAME,OBJECT_TYPE,CLASSIFICATION_TYPE,INTLDES,EPOCH,EPOCH_MICROSECONDS,MEAN_MOTION,ECCENTRICITY,INCLINATION,RA_OF_ASC_NODE,ARG_OF_PERICENTER,MEAN_ANOMALY,EPHEMERIS_TYPE,ELEMENT_SET_NO,REV_AT_EPOCH,BSTAR,MEAN_MOTION_DOT,MEAN_MOTION_DDOT,FILE,TLE_LINE0,TLE_LINE1,TLE_LINE2,OBJECT_ID,OBJECT_NUMBER,SEMIMAJOR_AXIS,PERIOD,APOGEE,PERIGEE,DECAYED,date
GENERATED VIA SPACETRACK.ORG API,18 SPCS,48884,SPACEBEE-101,PAYLOAD,U,21059F,2023/4/1 2:58,581696,15.26084644,0.0007783,97.5827,226.2786,188.0202,172.0913,0,999,9760,0.0017372,0.0004497,0,3876733,0 SPACEBEE-101,1 48884U 21059F   23091.12397664  .00044970  00000-0  17372-2 0  9998,2 48884  97.5827 226.2786 0007783 188.0202 172.0913 15.26084644 97606,2021-059F,48884,6865.667,94.359,492.876,482.189,0,
GENERATED VIA SPACETRACK.ORG API,18 SPCS,48884,SPACEBEE-101,PAYLOAD,U,21059F,2023/4/1 7:41,30208,15.26101511,0.0007744,97.5827,226.4782,187.3898,172.7227,0,999,9763,0.0016938,0.0004386,0,3877270,0 SPACEBEE-101,1 48884U 21059F   23091.32068322  .00043860  00000-0  16938-2 0  9990,2 48884  97.5827 226.4782 0007744 187.3898 172.7227 15.26101511 97635,2021-059F,48884,6865.617,94.358,492.799,482.165,0,
GENERATED VIA SPACETRACK.ORG API,18 SPCS,48884,SPACEBEE-101,PAYLOAD,U,21059F,2023/4/1 20:17,402848,15.26142848,0.0007744,97.583,227.0105,185.4372,174.6783,0,999,9771,0.0016181,0.00041938,0,3877516,0 SPACEBEE-101,1 48884U 21059F   23091.84522457  .00041938  00000-0  16181-2 0  9995,2 48884  97.5830 227.0105 0007744 185.4372 174.6783 15.26142848 97716,2021-059F,48884,6865.493,94.356,492.674,482.041,0,
GENERATED VIA SPACETRACK.ORG API,18 SPCS,48884,SPACEBEE-101,PAYLOAD,U,21059F,2023/4/2 8:52,458752,15.26188436,0.0007824,97.5829,227.5425,183.2778,176.841,0,999,9779,0.0017416,0.00045227,0,3877918,0 SPACEBEE-101,1 48884U 21059F   23092.36975068  .00045227  00000-0  17416-2 0  9990,2 48884  97.5829 227.5425 0007824 183.2778 176.8410 15.26188436 97791,2021-059F,48884,6865.356,94.353,492.593,481.85,0,
GENERATED VIA SPACETRACK.ORG API,18 SPCS,48884,SPACEBEE-101,PAYLOAD,U,21059F,2023/4/2 8:52,458752,15.26188436,0.0007824,97.5829,227.5425,183.2778,176.841,0,999,9779,0.0017416,0.00045227,0,3878126,0 SPACEBEE-101,1 48884U 21059F   23092.36975068  .00045227  00000-0  17416-2 0  9990,2 48884  97.5829 227.5425 0007824 183.2778 176.8410 15.26188436 97791,2021-059F,48884,6865.356,94.353,492.593,481.85,0,
GENERATED VIA SPACETRACK.ORG API,18 SPCS,48884,SPACEBEE-101,PAYLOAD,U,21059F,2023/4/2 21:27,289504,15.26222125,0.0007847,97.5831,228.0748,181.7405,178.3807,0,999,9787,0.0012827,0.00033271,0,3878419,0 SPACEBEE-101,1 48884U 21059F   23092.89426261  .00033271  00000-0  12827-2 0  9991,2 48884  97.5831 228.0748 0007847 181.7405 178.3807 15.26222125 97873,2021-059F,48884,6865.255,94.351,492.507,481.733,0,
GENERATED VIA SPACETRACK.ORG API,18 SPCS,48884,SPACEBEE-101,PAYLOAD,U,21059F,2023/4/3 2:10,180224,15.26236444,0.0007858,97.583,228.2743,181.1808,178.9413,0,999,9790,0.0013297,0.00034514,0,3878505,0 SPACEBEE-101,1 48884U 21059F   23093.09095116  .00034514  00000-0  13297-2 0  9998,2 48884  97.5830 228.2743 0007858 181.1808 178.9413 15.26236444 97904,2021-059F,48884,6865.212,94.35,492.472,481.682,0,
GENERATED VIA SPACETRACK.ORG API,18 SPCS,48884,SPACEBEE-101,PAYLOAD,U,21059F,2023/4/3 8:28,424704,15.26261297,0.0007849,97.5833,228.5404,180.2735,179.85,0,999,9794,0.001543,0.00040122,0,3879059,0 SPACEBEE-101,1 48884U 21059F   23093.35319936  .00040122  00000-0  15430-2 0  9999,2 48884  97.5833 228.5404 0007849 180.2735 179.8500 15.26261297 97948,2021-059F,48884,6865.138,94.348,492.391,481.614,0,
GENERATED VIA SPACETRACK.ORG API,18 SPCS,48884,SPACEBEE-101,PAYLOAD,U,21059F,2023/4/3 21:03,6464,15.2630195,0.0007848,97.5835,229.0727,179.13,180.9953,0,999,9802,0.0015113,0.0003934,0,3879321,0 SPACEBEE-101,1 48884U 21059F   23093.87768526  .00039340  00000-0  15113-2 0  9997,2 48884  97.5835 229.0727 0007848 179.1300 180.9953 15.26301950 98024,2021-059F,48884,6865.016,94.346,492.268,481.493,0,
GENERATED VIA SPACETRACK.ORG API,18 SPCS,48884,SPACEBEE-101,PAYLOAD,U,21059F,2023/4/3 22:38,369728,15.26306423,0.0007846,97.5835,229.1392,178.989,181.1366,0,999,9803,0.0014928,0.0003886,0,3879429,0 SPACEBEE-101,1 48884U 21059F   23093.94324502  .00038860  00000-0  14928-2 0  9996,2 48884  97.5835 229.1392 0007846 178.9890 181.1366 15.26306423 98034,2021-059F,48884,6865.002,94.345,492.254,481.481,0,
GENERATED VIA SPACETRACK.ORG API,18 SPCS,48884,SPACEBEE-101,PAYLOAD,U,21059F,2023/4/4 14:22,970752,15.26356444,0.0007815,97.5835,229.8045,176.8024,183.3265,0,999,9813,0.0014661,0.00038218,0,3879974,0 SPACEBEE-101,1 48884U 21059F   23094.59883068  .00038218  00000-0  14661-2 0  9996,2 48884  97.5835 229.8045 0007815 176.8024 183.3265 15.26356444 98139,2021-059F,48884,6864.852,94.342,492.082,481.352,0,
GENERATED VIA SPACETRACK.ORG API,18 SPCS,48884,SPACEBEE-101,PAYLOAD,U,21059F,2023/4/4 20:39,474272,15.26376148,0.0007724,97.5835,230.0704,176.1304,183.9995,0,999,9817,0.0013667,0.0003563,0,3880211,0 SPACEBEE-101,1 48884U 21059F   23094.86105873  .00035630  00000-0  13667-2 0  9997,2 48884  97.5835 230.0704 0007724 176.1304 183.9995 15.26376148 98171,2021-059F,48884,6864.793,94.341,491.961,481.356,0,
GENERATED VIA SPACETRACK.ORG API,18 SPCS,48884,SPACEBEE-101,PAYLOAD,U,21059F,2023/4/5 7:40,637664,15.26412714,0.0007777,97.5841,230.5366,174.4716,185.6609,0,999,9824,0.0014692,0.00038364,0,3880697,0 SPACEBEE-101,1 48884U 21059F   23095.31994951  .00038364  00000-0  14692-2 0  9997,2 48884  97.5841 230.5366 0007777 174.4716 185.6609 15.26412714 98242,2021-059F,48884,6864.684,94.339,491.887,481.21,0,
GENERATED VIA SPACETRACK.ORG API,18 SPCS,48884,SPACEBEE-101,PAYLOAD,U,21059F,2023/4/5 7:40,637664,15.26412714,0.0007777,97.5841,230.5366,174.4716,185.6609,0,999,9824,0.0014692,0.00038364,0,3880853,0 SPACEBEE-101,1 48884U 21059F   23095.31994951  .00038364  00000-0  14692-2 0  9997,2 48884  97.5841 230.5366 0007777 174.4716 185.6609 15.26412714 98242,2021-059F,48884,6864.684,94.339,491.887,481.21,0,
GENERATED VIA SPACETRACK.ORG API,18 SPCS,48884,SPACEBEE-101,PAYLOAD,U,21059F,2023/4/5 20:15,735264,15.26452549,0.0007728,97.5845,231.0691,172.5952,187.5401,0,999,9832,0.0014325,0.00037444,0,3881153,0 SPACEBEE-101,1 48884U 21059F   23095.84438351  .00037444  00000-0  14325-2 0  9993,2 48884  97.5845 231.0691 0007728 172.5952 187.5401 15.26452549 98320,2021-059F,48884,6864.564,94.336,491.734,481.124,0,
GENERATED VIA SPACETRACK.ORG API,18 SPCS,48884,SPACEBEE-101,PAYLOAD,U,21059F,2023/4/6 7:16,46240,15.26483754,0.0007784,97.5844,231.5351,170.7878,189.3505,0,999,9839,0.0013706,0.00035849,0,3881771,0 SPACEBEE-101,1 48884U 21059F   23096.30325285  .00035849  00000-0  13706-2 0  9995,2 48884  97.5844 231.5351 0007784 170.7878 189.3505 15.26483754 98390,2021-059F,48884,6864.471,94.334,491.679,480.992,0,
GENERATED VIA SPACETRACK.ORG API,18 SPCS,48884,SPACEBEE-101,PAYLOAD,U,21059F,2023/4/6 7:16,46240,15.26483754,0.0007784,97.5844,231.5351,170.7878,189.3505,0,999,9839,0.0013706,0.00035849,0,3882129,0 SPACEBEE-101,1 48884U 21059F   23096.30325285  .00035849  00000-0  13706-2 0  9995,2 48884  97.5844 231.5351 0007784 170.7878 189.3505 15.26483754 98390,2021-059F,48884,6864.471,94.334,491.679,480.992,0,
GENERATED VIA SPACETRACK.ORG API,18 SPCS,48884,SPACEBEE-101,PAYLOAD,U,21059F,2023/4/7 8:26,939072,15.26559171,0.0007767,97.5847,232.5999,167.4229,192.7204,0,999,9855,0.001395,0.00036575,0,3882434,0 SPACEBEE-101,1 48884U 21059F   23097.35205948  .00036575  00000-0  13950-2 0  9992,2 48884  97.5847 232.5999 0007767 167.4229 192.7204 15.26559171 98555,2021-059F,48884,6864.245,94.33,491.441,480.778,0,
GENERATED VIA SPACETRACK.ORG API,18 SPCS,48884,SPACEBEE-101,PAYLOAD,U,21059F,2023/4/7 8:26,939072,15.26559171,0.0007767,97.5847,232.5999,167.4229,192.7204,0,999,9855,0.001395,0.00036575,0,3882626,0 SPACEBEE-101,1 48884U 21059F   23097.35205948  .00036575  00000-0  13950-2 0  9992,2 48884  97.5847 232.5999 0007767 167.4229 192.7204 15.26559171 98555,2021-059F,48884,6864.245,94.33,491.441,480.778,0,
GENERATED VIA SPACETRACK.ORG API,18 SPCS,48884,SPACEBEE-101,PAYLOAD,U,21059F,2023/4/8 14:20,863168,15.26643385,0.0007737,97.585,233.8642,163.766,196.3827,0,999,9874,0.001319,0.00034658,0,3883527,0 SPACEBEE-101,1 48884U 21059F   23098.59745212  .00034658  00000-0  13190-2 0  9998,2 48884  97.5850 233.8642 0007737 163.7660 196.3827 15.26643385 98746,2021-059F,48884,6863.992,94.325,491.168,480.546,0,
GENERATED VIA SPACETRACK.ORG API,18 SPCS,48884,SPACEBEE-101,PAYLOAD,U,21059F,2023/4/8 14:20,863168,15.26643385,0.0007737,97.585,233.8642,163.766,196.3827,0,999,9874,0.001319,0.00034658,0,3883600,0 SPACEBEE-101,1 48884U 21059F   23098.59745212  .00034658  00000-0  13190-2 0  9998,2 48884  97.5850 233.8642 0007737 163.7660 196.3827 15.26643385 98746,2021-059F,48884,6863.992,94.325,491.168,480.546,0,
GENERATED VIA SPACETRACK.ORG API,18 SPCS,48884,SPACEBEE-101,PAYLOAD,U,21059F,2023/4/9 7:38,980128,15.26692687,0.0007684,97.5853,234.5966,161.3666,198.7855,0,999,9885,0.0012826,0.00033745,0,3884332,0 SPACEBEE-101,1 48884U 21059F   23099.31843727  .00033745  00000-0  12826-2 0  9990,2 48884  97.5853 234.5966 0007684 161.3666 198.7855 15.26692687 98855,2021-059F,48884,6863.844,94.322,490.983,480.435,0,
GENERATED VIA SPACETRACK.ORG API,18 SPCS,48884,SPACEBEE-101,PAYLOAD,U,21059F,2023/4/9 18:39,50432,15.26722927,0.0007701,97.5855,235.0624,159.6826,200.472,0,999,9892,0.001257,0.00033097,0,3884419,0 SPACEBEE-101,1 48884U 21059F   23099.77723438  .00033097  00000-0  12570-2 0  9992,2 48884  97.5855 235.0624 0007701 159.6826 200.4720 15.26722927 98923,2021-059F,48884,6863.754,94.32,490.904,480.333,0,
